NORAD_CAT_ID,OBJECT_NAME,OBJECT_TYPE,EPOCH,MEAN_MOTION,ECCENTRICITY,INCLINATION,RA_OF_ASC_NODE,ARG_OF_PERICENTER,MEAN_ANOMALY,BSTAR,MEAN_MOTION_DOT,MEAN_MOTION_DDOT,TLE_LINE0,TLE_LINE1,TLE_LINE2,SEMIMAJOR_AXIS,PERIOD,APOGEE,PERIGEE,DECAYED
51861.0,STARLINK-3562,PAYLOAD,2022-03-26 22:00:00,15.732237,0.000117,53.2187,28.8013,88.1883,297.2242,-4.813e-06,-1.296e-05,0.0,0 STARLINK-3562,1 51861U 22022K   22085.91667824 -.00001296  00000-0 -48130-5 0  9990,2 51861  53.2187  28.8013 0001170  88.1883 297.2242 15.73223700  3704,6727.828,91.532,350.48,348.905,0.0
51861.0,STARLINK-3562,PAYLOAD,2022-03-27 06:00:00,15.73181893,0.0001092,53.2187,27.1537,75.6783,38.704,0.00022399,0.00030907,0.0,0 STARLINK-3562,1 51861U 22022K   22086.25001157  .00030907  00000-0  22399-3 0  9995,2 51861  53.2187  27.1537 0001092  75.6783  38.7040 15.73181893  4936,6727.946999999999,91.534,350.546,349.077,0.0
51861.0,STARLINK-3562,PAYLOAD,2022-03-27 14:00:01,15.73190536,0.0001077,53.2186,25.5024,86.1536,117.1714,2.147e-05,2.393e-05,0.0,0 STARLINK-3562,1 51861U 22022K   22086.58334491  .00002393  00000-0  21470-4 0  9999,2 51861  53.2186  25.5024 0001077  86.1536 117.1714 15.73190536  3702,6727.922,91.534,350.51199999999994,349.06300000000016,0.0
51861.0,STARLINK-3562,PAYLOAD,2022-03-27 22:00:01,15.73219514,0.0001077,53.2183,23.8514,90.344,201.9905,0.00015461,0.00021151,0.0,0 STARLINK-3562,1 51861U 22022K   22086.91668981  .00021151  00000-0  15461-3 0  9995,2 51861  53.2183  23.8514 0001077  90.3440 201.9905 15.73219514  3707,6727.84,91.532,350.42900000000014,348.98,0.0
51861.0,STARLINK-3562,PAYLOAD,2022-03-28 14:00:01,15.73210393,9.48e-05,53.2186,20.5538,92.6393,17.6345,0.00014658,0.0002001,0.0,0 STARLINK-3562,1 51861U 22022K   22087.58335648  .00020010  00000-0  14658-3 0  9990,2 51861  53.2186  20.5538 0000948  92.6393  17.6345 15.73210393  3704,6727.866,91.533,350.36800000000005,349.093,0.0
51861.0,STARLINK-3562,PAYLOAD,2022-03-28 22:00:00,15.73264872,0.0001237,53.219,18.9046,94.2164,104.9174,-0.00058463,-0.00082098,0.0,0 STARLINK-3562,1 51861U 22022K   22087.91667824 -.00082098  00000-0 -58463-3 0  9999,2 51861  53.2190  18.9046 0001237  94.2164 104.9174 15.73264872  5208,6727.71,91.529,350.407,348.74300000000005,0.0
51861.0,STARLINK-3562,PAYLOAD,2022-03-29 12:00:00,15.73164613,0.0001257,53.2188,16.0181,90.11,174.6917,-5.3678e-05,-8.134e-05,0.0,0 STARLINK-3562,1 51861U 22022K   22088.50001157 -.00008134  00000-0 -53678-4 0  9999,2 51861  53.2188  16.0181 0001257  90.1100 174.6917 15.73164613  5291,6727.996,91.535,350.707,349.015,0.0
51861.0,STARLINK-3562,PAYLOAD,2022-03-29 14:00:01,15.73123092,0.0001240999999999,53.219,15.6053,95.2835,281.751,0.00062407,0.00087591,0.0,0 STARLINK-3562,1 51861U 22022K   22088.58334491  .00087591  00000-0  62407-3 0  9998,2 51861  53.2190  15.6053 0001241  95.2835 281.7510 15.73123092  3665,6728.114000000001,91.538,350.814,349.144,0.0
51861.0,STARLINK-3562,PAYLOAD,2022-03-29 22:00:00,15.73229759,0.0001243,53.2189,13.9568,95.3886,10.5039,-0.00030753,-0.00043611,0.0,0 STARLINK-3562,1 51861U 22022K   22088.91667824 -.00043611  00000-0 -30753-3 0  9990,2 51861  53.2189  13.9568 0001243  95.3886  10.5039 15.73229759  3665,6727.81,91.531,350.51199999999994,348.839,0.0
51861.0,STARLINK-3562,PAYLOAD,2022-03-30 02:00:01,15.73220827,0.0001193,53.2187,13.1331,89.7016,240.6663,-0.0003926,-0.00055405,0.0,0 STARLINK-3562,1 51861U 22022K   22089.08334491 -.00055405  00000-0 -39260-3 0  9996,2 51861  53.2187  13.1331 0001193  89.7016 240.6663 15.73220827  5386,6727.8359999999975,91.532,350.50300000000016,348.898,0.0
51861.0,STARLINK-3562,PAYLOAD,2022-03-30 14:00:01,15.73131475,0.0001179,53.2189,10.6574,98.8909,184.9309,0.00066225,0.00093083,0.0,0 STARLINK-3562,1 51861U 22022K   22089.58335648  .00093083  00000-0  66225-3 0  9999,2 51861  53.2189  10.6574 0001179  98.8909 184.9309 15.73131475  3672,6728.090999999999,91.537,350.749,349.162,0.0
51861.0,STARLINK-3562,PAYLOAD,2022-03-30 20:00:01,15.73194347,0.0001232,53.2192,9.4205,102.2398,158.1664,0.00042437,0.00059344,0.0,0 STARLINK-3562,1 51861U 22022K   22089.83334491  .00059344  00000-0  42437-3 0  9993,2 51861  53.2192   9.4205 0001232 102.2398 158.1664 15.73194347  5503,6727.911,91.534,350.605,348.94699999999995,0.0
51861.0,STARLINK-3562,PAYLOAD,2022-03-30 22:00:00,15.73227807,0.0001195,53.2192,9.0088,98.1543,274.4777,-2.2894e-06,-9.42e-06,0.0,0 STARLINK-3562,1 51861U 22022K   22089.91667824 -.00000942  00000-0 -22894-5 0  9990,2 51861  53.2192   9.0088 0001195  98.1543 274.4777 15.73227807  3728,6727.816,91.532,350.485,348.87699999999984,0.0
51861.0,STARLINK-3562,PAYLOAD,2022-03-31 06:00:00,15.73223698,0.0001089,53.219,7.3607,87.7534,13.8441,-0.00029247,-0.00041504,0.0,0 STARLINK-3562,1 51861U 22022K   22090.25001157 -.00041504  00000-0 -29247-3 0  9996,2 51861  53.2190   7.3607 0001089  87.7534  13.8441 15.73223698  5561,6727.828,91.532,350.425,348.96,0.0
51861.0,STARLINK-3562,PAYLOAD,2022-03-31 14:00:01,15.73145244,0.0001148,53.2191,5.7089,101.3397,89.21,0.00071666,0.00100936,0.0,0 STARLINK-3562,1 51861U 22022K   22090.58334491  .00100936  00000-0  71666-3 0  9997,2 51861  53.2191   5.7089 0001148 101.3397  89.2100 15.73145244  3752,6728.051,91.536,350.689,349.144,0.0
51861.0,STARLINK-3562,PAYLOAD,2022-03-31 22:00:00,15.73229462,0.0001325,53.2188,4.0611,98.7639,180.7004,-0.00031951,-0.00045277,0.0,0 STARLINK-3562,1 51861U 22022K   22090.91667824 -.00045277  00000-0 -31951-3 0  9994,2 51861  53.2188   4.0611 0001325  98.7639 180.7004 15.73229462  5674,6727.811,91.531,350.5680000000001,348.785,0.0
51861.0,STARLINK-3562,PAYLOAD,2022-04-01 06:00:00,15.73259923,0.0001172,53.2182,2.4128,91.7269,276.7419,-3.9075e-05,-6.114e-05,0.0,0 STARLINK-3562,1 51861U 22022K   22091.25001157 -.00006114  00000-0 -39075-4 0  9996,2 51861  53.2182   2.4128 0001172  91.7269 276.7419 15.73259923  5722,6727.724,91.53,350.37800000000016,348.801,0.0
51861.0,STARLINK-3562,PAYLOAD,2022-04-01 14:00:01,15.73227003,0.000113,53.2184,0.7611,109.8078,347.6628,-9.7063e-05,-0.00014234,0.0,0 STARLINK-3562,1 51861U 22022K   22091.58334491 -.00014234  00000-0 -97063-4 0  9995,2 51861  53.2184   0.7611 0001130 109.8078 347.6628 15.73227003  3705,6727.818,91.532,350.4430000000001,348.923,0.0
51861.0,STARLINK-3562,PAYLOAD,2022-04-01 20:00:01,15.73243386,0.0001205,53.2187,359.5244,108.9228,325.2598,-0.00055246,-0.00077585,0.0,0 STARLINK-3562,1 51861U 22022K   22091.83334491 -.00077585  00000-0 -55246-3 0  9997,2 51861  53.2187 359.5244 0001205 108.9228 325.2598 15.73243386  5819,6727.771,91.531,350.44699999999995,348.826,0.0
51861.0,STARLINK-3562,PAYLOAD,2022-04-01 22:00:00,15.73205451,0.0001178,53.2187,359.1127,104.2495,82.14,-0.00069082,-0.00096488,0.0,0 STARLINK-3562,1 51861U 22022K   22091.91667824 -.00096488  00000-0 -69082-3 0  9991,2 51861  53.2187 359.1127 0001178 104.2495  82.1400 15.73205451  3673,6727.88,91.533,350.537,348.952,0.0
51861.0,STARLINK-3562,PAYLOAD,2022-04-02 06:00:00,15.73108722,0.0001031,53.2177,357.4594,94.2969,180.9955,6.3341e-05,8.245e-05,0.0,0 STARLINK-3562,1 51861U 22022K   22092.25001157  .00008245  00000-0  63341-4 0  9995,2 51861  53.2177 357.4594 0001031  94.2969 180.9955 15.73108722  5883,6728.155,91.538,350.714,349.327,0.0
51861.0,STARLINK-3562,PAYLOAD,2022-04-02 14:00:01,15.73127244,9.1e-05,53.2182,355.81300000000016,112.7371,251.538,0.0008195,0.00115624,0.0,0 STARLINK-3562,1 51861U 22022K   22092.58335648  .00115624  00000-0  81950-3 0  9991,2 51861  53.2182 355.8130 0000910 112.7371 251.5380 15.73127244  5938,6728.103,91.537,350.58,349.355,0.0
51861.0,STARLINK-3562,PAYLOAD,2022-04-02 22:00:01,15.73246355,9.14e-05,53.2181,354.1651,107.6906,345.4941,-0.00083244,-0.00116073,0.0,0 STARLINK-3562,1 51861U 22022K   22092.91668981 -.00116073  00000-0 -83244-3 0  9996,2 51861  53.2181 354.1651 0000914 107.6906 345.4941 15.73246355  3702,6727.763000000001,91.53,350.24300000000005,349.01300000000015,0.0
51861.0,STARLINK-3562,PAYLOAD,2022-04-03 04:00:00,15.73117196,8.46e-05,53.2178,352.9292,101.183,328.6439,0.0005437,0.00076106,0.0,0 STARLINK-3562,1 51861U 22022K   22093.16667824  .00076106  00000-0  54370-3 0  9997,2 51861  53.2178 352.9292 0000846 101.1830 328.6439 15.73117196  6027,6728.130999999999,91.538,350.565,349.427,0.0
51861.0,STARLINK-3562,PAYLOAD,2022-04-03 14:00:01,15.73161081,9.68e-05,53.2175,350.865,117.1792,153.7384,-4.7864e-05,-7.319e-05,0.0,0 STARLINK-3562,1 51861U 22022K   22093.58334491 -.00007319  00000-0 -47864-4 0  9997,2 51861  53.2175 350.8650 0000968 117.1792 153.7384 15.73161081  6093,6728.005999999999,91.535,350.522,349.22,0.0
51861.0,STARLINK-3562,PAYLOAD,2022-04-03 22:00:00,15.73089405,0.0001124,53.2179,349.2171,106.7127,253.0725,0.0011144,0.00158002,0.0,0 STARLINK-3562,1 51861U 22022K   22093.91667824  .00158002  00000-0  11144-2 0  9997,2 51861  53.2179 349.2171 0001124 106.7127 253.0725 15.73089405  3693,6728.2109999999975,91.54,350.832,349.319,0.0
51861.0,STARLINK-3562,PAYLOAD,2022-04-04 14:00:01,15.73256364,0.0001298,53.2174,345.9166,103.7895,73.9116,0.00060374,0.0008517999999999,0.0,0 STARLINK-3562,1 51861U 22022K   22094.58334491  .00085180  00000-0  60374-3 0  9998,2 51861  53.2174 345.9166 0001298 103.7895  73.9116 15.73256364  6254,6727.734,91.53,350.473,348.726,0.0
51861.0,STARLINK-3562,PAYLOAD,2022-04-04 22:00:00,15.7330456,0.0001345,53.2172,344.2687,95.6529,171.1039,4.9837e-05,6.409999999999999e-05,0.0,0 STARLINK-3562,1 51861U 22022K   22094.91667824  .00006410  00000-0  49837-4 0  9995,2 51861  53.2172 344.2687 0001345  95.6529 171.1039 15.73304560  3678,6727.597,91.527,350.367,348.557,0.0
51861.0,STARLINK-3562,PAYLOAD,2022-04-05 06:00:00,15.73382601,0.0001136,53.2167,342.6192,93.0255,262.7757,-0.0019939,-0.00273669,0.0,0 STARLINK-3562,1 51861U 22022K   22095.25001157 -.00273669  00000-0 -19939-2 0  9996,2 51861  53.2167 342.6192 0001136  93.0255 262.7757 15.73382601  6355,6727.375,91.523,350.004,348.475,0.0
